STARLINK-30069          
1 56834U 23079M   26067.48212902 -.00002416  00000+0 -80472-4 0  9995
2 56834  42.9986 110.4464 0000469 272.6695  87.4103 15.26726881152740
STARLINK-32680          
1 62423U 24249Q   26068.04857473  .00040484  00000+0  14731-2 0  9995
2 62423  42.9990 317.8607 0002155 286.6468  73.4147 15.27568104 67713
